******** Week 220 almanac for PRN-15 ********
ID:                             15
Health:                         0
Eccentricity:                   1.50189399700000e-02
Time of Applicability(s):       259200
Orbital Inclination(rad):       9.32752597600000e-01
Rate of Right Ascen(r/s):       -8.11462372100000e-09
SQRT(A)  (m 1/2):               5.15368554700000e+03
Right Ascen at Week(rad):       -2.45756043500000e+00
Argument of Perigee(rad):       1.20653880700000e+00
Mean Anom(rad):                 -1.16949294600000e+00
Af0(s):                         0.00000000000000e+00
Af1(s/s):                       0.00000000000000e+00
week:                           220

******** Week 220 almanac for PRN-16 ********
ID:                             16
Health:                         0
Eccentricity:                   1.32956504800000e-02
Time of Applicability(s):       259200
Orbital Inclination(rad):       9.65086036400000e-01
Rate of Right Ascen(r/s):       -7.93175896100000e-09
SQRT(A)  (m 1/2):               5.15356201200000e+03
Right Ascen at Week(rad):       -1.33415507300000e-01
Argument of Perigee(rad):       7.89238733000000e-01
Mean Anom(rad):                 7.21554077700000e-01
Af0(s):                         0.00000000000000e+00
Af1(s/s):                       0.00000000000000e+00
week:                           220

******** Week 220 almanac for PRN-17 ********
ID:                             17
Health:                         0
Eccentricity:                   1.34983062700000e-02
Time of Applicability(s):       259200
Orbital Inclination(rad):       9.73966347000000e-01
Rate of Right Ascen(r/s):       -7.74889420100000e-09
SQRT(A)  (m 1/2):               5.15373974600000e+03
Right Ascen at Week(rad):       8.87266696600000e-01
Argument of Perigee(rad):       -1.40472755200000e+00
Mean Anom(rad):                 -2.77983084800000e-01
Af0(s):                         0.00000000000000e+00
Af1(s/s):                       0.00000000000000e+00
week:                           220

******** Week 220 almanac for PRN-18 ********
ID:                             18
Health:                         0
Eccentricity:                   3.35216522200000e-03
Time of Applicability(s):       259200
Orbital Inclination(rad):       9.73762615200000e-01
Rate of Right Ascen(r/s):       -7.81746848600000e-09
SQRT(A)  (m 1/2):               5.15362451200000e+03
Right Ascen at Week(rad):       1.89144999300000e+00
Argument of Perigee(rad):       3.12307927300000e+00
Mean Anom(rad):                 -2.21521693700000e+00
Af0(s):                         0.00000000000000e+00
Af1(s/s):                       0.00000000000000e+00
week:                           220

******** Week 220 almanac for PRN-19 ********
ID:                             19
Health:                         0
Eccentricity:                   9.49001312300000e-03
Time of Applicability(s):       259200
Orbital Inclination(rad):       9.73013601100000e-01
Rate of Right Ascen(r/s):       -7.73746515400000e-09
SQRT(A)  (m 1/2):               5.15358300800000e+03
Right Ascen at Week(rad):       9.31781725500000e-01
Argument of Perigee(rad):       2.33364317500000e+00
Mean Anom(rad):                 1.91168348500000e+00
Af0(s):                         0.00000000000000e+00
Af1(s/s):                       0.00000000000000e+00
week:                           220

******** Week 220 almanac for PRN-20 ********
ID:                             20
Health:                         0
Eccentricity:                   4.03547287000000e-03
Time of Applicability(s):       259200
Orbital Inclination(rad):       9.49147017200000e-01
Rate of Right Ascen(r/s):       -8.21748514800000e-09
SQRT(A)  (m 1/2):               5.15351367200000e+03
Right Ascen at Week(rad):       2.75144096900000e+00
Argument of Perigee(rad):       -2.87801348400000e+00
Mean Anom(rad):                 -1.56421174400000e+00
Af0(s):                         0.00000000000000e+00
Af1(s/s):                       0.00000000000000e+00
week:                           220

******** Week 220 almanac for PRN-21 ********
ID:                             21
Health:                         0
Eccentricity:                   2.46639251700000e-02
Time of Applicability(s):       259200
Orbital Inclination(rad):       9.61598626900000e-01
Rate of Right Ascen(r/s):       -7.85175562900000e-09
SQRT(A)  (m 1/2):               5.15356152300000e+03
Right Ascen at Week(rad):       1.78639852500000e+00
Argument of Perigee(rad):       -7.44335715000000e-01
Mean Anom(rad):                 -2.36902285400000e-01
Af0(s):                         0.00000000000000e+00
Af1(s/s):                       0.00000000000000e+00
week:                           220

******** Week 220 almanac for PRN-22 ********
ID:                             22
Health:                         0
Eccentricity:                   0.00000000000000e+00
Time of Applicability(s):       259200
Orbital Inclination(rad):       9.59931088700065e-01
Rate of Right Ascen(r/s):       0.00000000000000e+00
SQRT(A)  (m 1/2):               5.15370081099980e+03
Right Ascen at Week(rad):       2.69298374700000e+00
Argument of Perigee(rad):       -1.82339680200000e+00
Mean Anom(rad):                 -7.65956640200001e-02
Af0(s):                         0.00000000000000e+00
Af1(s/s):                       0.00000000000000e+00
week:                           220

******** Week 220 almanac for PRN-23 ********
ID:                             23
Health:                         0
Eccentricity:                   3.27777862500000e-03
Time of Applicability(s):       259200
Orbital Inclination(rad):       9.74535597700000e-01
Rate of Right Ascen(r/s):       -7.94318800900000e-09
SQRT(A)  (m 1/2):               5.15361279300000e+03
Right Ascen at Week(rad):       2.89128975800000e+00
Argument of Perigee(rad):       -3.10272519100000e+00
Mean Anom(rad):                 3.02277206000000e+00
Af0(s):                         0.00000000000000e+00
Af1(s/s):                       0.00000000000000e+00
week:                           220

******** Week 220 almanac for PRN-24 ********
ID:                             24
Health:                         0
Eccentricity:                   1.39765739400000e-02
Time of Applicability(s):       259200
Orbital Inclination(rad):       9.33543556400000e-01
Rate of Right Ascen(r/s):       -8.05747848300000e-09
SQRT(A)  (m 1/2):               5.15358984400000e+03
Right Ascen at Week(rad):       -1.35764452800000e+00
Argument of Perigee(rad):       8.97847644000000e-01
Mean Anom(rad):                 -2.08080673900000e+00
Af0(s):                         0.00000000000000e+00
Af1(s/s):                       0.00000000000000e+00
week:                           220

******** Week 220 almanac for PRN-25 ********
ID:                             25
Health:                         0
Eccentricity:                   1.10597610500000e-02
Time of Applicability(s):       259200
Orbital Inclination(rad):       9.53071850900000e-01
Rate of Right Ascen(r/s):       -8.04604943600000e-09
SQRT(A)  (m 1/2):               5.15365918000000e+03
Right Ascen at Week(rad):       -2.34247030600000e-01
Argument of Perigee(rad):       1.05149214800000e+00
Mean Anom(rad):                 2.33526816100000e+00
Af0(s):                         0.00000000000000e+00
Af1(s/s):                       0.00000000000000e+00
week:                           220

******** Week 220 almanac for PRN-26 ********
ID:                             26
Health:                         0
Eccentricity:                   7.93695449800000e-03
Time of Applicability(s):       259200
Orbital Inclination(rad):       9.33813201500000e-01
Rate of Right Ascen(r/s):       -8.25177229100000e-09
SQRT(A)  (m 1/2):               5.15364550800000e+03
Right Ascen at Week(rad):       -2.90423833800000e-01
Argument of Perigee(rad):       4.62164892000000e-01
Mean Anom(rad):                 1.63124550600000e+00
Af0(s):                         0.00000000000000e+00
Af1(s/s):                       0.00000000000000e+00
week:                           220

******** Week 220 almanac for PRN-27 ********
ID:                             27
Health:                         0
Eccentricity:                   1.15566253700000e-02
Time of Applicability(s):       259200
Orbital Inclination(rad):       9.67309110100000e-01
Rate of Right Ascen(r/s):       -7.80603943900000e-09
SQRT(A)  (m 1/2):               5.15362011700000e+03
Right Ascen at Week(rad):       8.21372934000000e-01
Argument of Perigee(rad):       7.42856412000000e-01
Mean Anom(rad):                 -1.74775314500000e-01
Af0(s):                         0.00000000000000e+00
Af1(s/s):                       0.00000000000000e+00
week:                           220

******** Week 220 almanac for PRN-28 ********
ID:                             28
Health:                         0
Eccentricity:                   6.45637512200000e-04
Time of Applicability(s):       259200
Orbital Inclination(rad):       9.61101281600000e-01
Rate of Right Ascen(r/s):       -7.77175229600000e-09
SQRT(A)  (m 1/2):               5.15364843800000e+03
Right Ascen at Week(rad):       -1.30346721800000e+00
Argument of Perigee(rad):       1.68005126200000e+00
Mean Anom(rad):                 1.74005889800000e+00
Af0(s):                         0.00000000000000e+00
Af1(s/s):                       0.00000000000000e+00
week:                           220

